OBJECT_NAME,OBJECT_ID,EPOCH,MEAN_MOTION,ECCENTRICITY,INCLINATION,RA_OF_ASC_NODE,ARG_OF_PERICENTER,MEAN_ANOMALY,EPHEMERIS_TYPE,CLASSIFICATION_TYPE,NORAD_CAT_ID,ELEMENT_SET_NO,REV_AT_EPOCH,BSTAR,MEAN_MOTION_DOT,MEAN_MOTION_DDOT
GSAT0216 (GALILEO 20),2017-079B,2026-07-20T03:43:27.887232,1.70474538,.00049348,55.0668,220.5989,278.3287,81.6543,0,U,43056,999,5356,0,.57E-6,0
GSAT0217 (GALILEO 21),2017-079C,2026-07-20T23:06:06.568992,1.70474474,.00042597,55.0652,220.5745,292.9460,67.0499,0,U,43057,999,5356,0,.62E-6,0
GSAT0218 (GALILEO 22),2017-079D,2026-07-20T14:18:20.337408,1.70474523,.0005427,55.0653,220.5820,275.3809,84.5971,0,U,43058,999,5358,0,.6E-6,0
BEIDOU-3 M7 (C27),2018-003A,2026-07-21T04:17:51.211680,1.86228034,.00042574,54.2952,301.1286,100.7827,259.2991,0,U,43107,999,5798,0,-.101E-5,0
BEIDOU-3 M8 (C28),2018-003B,2026-07-21T02:57:33.806880,1.86230867,.0003135,54.2882,301.1120,256.2857,103.7134,0,U,43108,999,5799,0,-.101E-5,0
BEIDOU-3 M4 (C22),2018-018A,2026-07-19T22:56:09.167424,1.86231755,.00071723,56.6802,62.0675,31.2345,328.8714,0,U,43207,999,5735,0,-.76E-6,0
BEIDOU-3 M3 (C21),2018-018B,2026-07-17T08:05:51.086112,1.86230933,.00073001,56.6769,62.1579,348.2235,11.8303,0,U,43208,999,5730,0,-.55E-6,0
BEIDOU-3 M9 (C29),2018-029A,2026-07-20T18:39:06.464160,1.86228473,.00012257,54.1607,298.7724,191.5121,168.5224,0,U,43245,999,5652,0,-.98E-6,0
BEIDOU-3 M10 (C30),2018-029B,2026-07-21T05:57:33.309216,1.86229126,.00031633,54.1588,298.7826,37.1139,322.9449,0,U,43246,999,5651,0,-.98E-6,0
IRNSS-1I,2018-035A,2026-07-19T17:41:38.584032,1.00273777,.00183655,28.8289,73.6878,178.9692,5.3277,0,U,43286,999,3040,0,.63E-6,0
COSMOS 2527 (756),2018-053A,2026-07-20T09:39:19.852704,2.13101992,.00063441,65.5961,72.7996,227.3843,132.6293,0,U,43508,999,6298,0,-.49E-6,0
BEIDOU-2 IGSO-7 (C16),2018-057A,2026-07-16T19:52:42.225600,1.00242392,.01049148,55.1987,162.7987,237.9691,299.1450,0,U,43539,999,2942,0,-.84E-6,0
GSAT0221 (GALILEO 25),2018-060A,2026-07-17T13:36:55.120032,1.70476136,.00027013,57.1585,340.9609,283.6812,76.2771,0,U,43564,999,4968,0,-.104E-5,0
GSAT0222 (GALILEO 26),2018-060B,2026-07-20T17:16:42.302784,1.70476015,.00029759,57.1607,340.8795,234.4134,125.5527,0,U,43565,999,4978,0,-.107E-5,0
GSAT0219 (GALILEO 23),2018-060C,2026-07-18T14:15:59.838048,1.70476160,.00018574,57.1608,340.9384,295.5518,64.4195,0,U,43566,999,4972,0,-.105E-5,0
GSAT0220 (GALILEO 24),2018-060D,2026-07-19T23:43:37.727904,1.70476103,.00021108,57.1597,340.9001,284.4251,75.5444,0,U,43567,999,4973,0,-.107E-5,0
BEIDOU-3 M5 (C23),2018-062A,2026-07-19T07:47:04.737696,1.86228602,.00056346,54.0864,181.2111,294.4179,65.4981,0,U,43581,999,5423,0,.66E-6,0
BEIDOU-3 M6 (C24),2018-062B,2026-07-20T06:17:08.096064,1.86227764,.0005402,54.0864,181.1686,11.1731,348.8168,0,U,43582,999,5425,0,.74E-6,0
BEIDOU-3 M12 (C26),2018-067A,2026-07-20T04:48:29.818368,1.86227616,.00080114,54.1815,179.9209,30.2508,329.7719,0,U,43602,999,5373,0,.73E-6,0
BEIDOU-3 M11 (C25),2018-067B,2026-07-20T08:03:07.341696,1.86227099,.00047137,54.1791,179.8798,13.7964,346.1934,0,U,43603,999,5376,0,.74E-6,0
BEIDOU-3 M13 (C32),2018-072A,2026-07-20T19:51:02.488032,1.86231285,.00056715,56.6540,61.5496,334.9185,25.1158,0,U,43622,999,5328,0,-.8E-6,0
BEIDOU-3 M14 (C33),2018-072B,2026-07-20T03:44:02.647680,1.86231093,.0005474,56.6556,61.5665,12.2257,347.8503,0,U,43623,999,5326,0,-.77E-6,0
BEIDOU-3 M16 (C35),2018-078A,2026-07-20T07:27:03.292128,1.86232352,.00065272,54.0576,298.8239,39.3317,320.7532,0,U,43647,999,5277,0,-.97E-6,0
BEIDOU-3 M15 (C34),2018-078B,2026-07-20T23:26:23.627040,1.86232487,.00033878,54.0528,298.8006,57.1042,302.9655,0,U,43648,999,5280,0,-.98E-6,0
BEIDOU-3 G1 (C59),2018-085A,2026-07-21T05:17:13.049952,1.00272764,.00082291,2.9529,96.4540,356.8472,84.9732,0,U,43683,999,2840,0,-.11E-5,0
COSMOS 2529 (757),2018-086A,2026-07-20T11:57:49.657824,2.13101999,.00119769,64.2975,191.4696,256.3144,103.5547,0,U,43687,999,5999,0,.85E-6,0
BEIDOU-3 M17 (C36),2018-093A,2026-07-21T07:07:19.497216,1.86228476,.00100178,54.1702,181.1392,295.1990,170.7135,0,U,43706,999,5217,0,.78E-6,0
BEIDOU-3 M18 (C37),2018-093B,2026-07-21T00:03:23.021856,1.86226686,.00081178,54.1710,181.1414,324.4293,35.4967,0,U,43707,999,5216,0,.78E-6,0
GPS BIII-1  (PRN 04),2018-109A,2026-07-21T03:47:32.267040,2.00563284,.00387815,55.7023,90.8459,197.0456,335.2227,0,U,43873,999,5575,0,-.59E-6,0
BEIDOU-3 IGSO-1 (C38),2019-023A,2026-07-16T07:41:18.119904,1.00282972,.00259114,58.7368,37.3490,224.0979,267.2124,0,U,44204,999,750,0,-.209E-5,0
BEIDOU-2 G8 (C01),2019-027A,2026-07-21T05:12:50.969376,1.00270334,.00096633,1.7426,74.5173,283.4916,163.6965,0,U,44231,999,2642,0,-.248E-5,0
